#dP2021  2 14 12  0  0.00000000      96 __u+U ITR00 EXT  IAC
## 2145  43200.00000000   900.00000000 59259 0.5000000000000
+  117   C06C07C08C09C10C11C12C13C14C16C19C20C21C22C23C24C25
+        C26C27C28C29C30C32C33C34C35C36C37C38C39C40C41C42C43
+        C44C45C46E01E02E03E04E05E07E08E09E11E12E13E14E15E18
+        E19E21E24E25E26E27E30E31E33E36G01G02G03G04G05G06G07
+        G08G09G10G11G12G13G14G15G16G17G18G19G20G21G22G23G24
+        G25G26G27G28G29G30G31G32J01J02J03R01R02R03R04R05R07
+        R08R09R11R12R13R14R15R16R17R18R19R20R21R22R24  0  0
++         9 11 11  8  9 10 10  8 11  9  7  8 10  9  8  9  9
++         8  8  7  8  7  7  8  8  8  8  8 11  8 10  9 10  9
++        10  9 10  8  8  7  8  9  9  9 10  9 10 10  8  7  8
++         9  8  9  8  9  8  8  9 10  8  7  8  8  8  9  8  9
++         8  7  7  9  8  7  7  8  8  8  7  8  7  7  8  8  6
++         8  8  9  8  8  7  8  7 11 11  9  8  8  7  9  9  8
++         8  9  8  9  8  9  7  8  9 10  8  7  9  9  9  0  0
%c M  cc GPS ccc cccc cccc cccc cccc ccccc ccccc ccccc ccccc
%c cc cc ccc ccc cccc cccc cccc cccc ccccc ccccc ccccc ccccc
%f  0.0000000  0.000000000  0.00000000000  0.000000000000000
%f  0.0000000  0.000000000  0.00000000000  0.000000000000000
%i    0    0    0    0      0      0      0      0         0
%i    0    0    0    0      0      0      0      0         0
/* IAC                                ULTRA-RAPID PREDICTION
/* S/V CLOCKS ARE ALIGNED TO GNSS TIME                      
/* G:C1WC2W R:C1PC2P E:C1XC5X C:C2IC6I J:C1CC2S             
/* PCV:IGS14_2134 OL/AL:FES2004  NONE     YN ORB:CoN CLK:CoN
*  2021 02 15  9 45  0.00000000
PC06  -6210.162376  33138.450417 -24564.357772     93.613571
PC07 -18022.028040  23319.478417  30245.478177   -328.482354
PC08 -23007.786341  35174.674634  -5161.734869   -913.746069
PC09   3799.519428  39687.027380 -12745.792464    731.907501
PC10  -2884.774841  26396.291559  32945.790975    -86.156935
PC11  -4161.610700 -27442.074296  -2622.670936   -922.135958
PC12   7725.546982 -19724.604970 -18117.649057    799.629739
PC13 -11518.918117  36079.460464 -18669.784706    142.391094
PC14  -5622.482335 -17107.008945  21330.493598    141.092759
PC16  -4306.260279  34289.699989 -23939.073677   -696.795004
PC19  15917.344960  16263.780793 -16134.013597    728.679397
PC20  -3666.362235  15451.870839 -22930.603483   -915.868114
PC21  22026.641188  -5306.856087  16321.209926   -839.358442
PC22  26827.150540   7731.069809    216.039716   -880.510854
PC23 -19731.631620   -885.541771 -19719.060968   -876.095964
PC24  12641.393183 -22385.517390 -10830.203486   -760.981518
PC25  -6042.329696 -16067.046852 -22005.475463   -934.189625
PC26  22057.356079 -16156.240142   5477.258916    948.226064
PC27 -13263.075698  10650.434070  22104.342602    483.688040
PC28 -16454.220915 -10417.247866  19992.055395   -109.260503
PC29  10950.270093  24916.083093  -6155.389558    352.709975
PC30  -1718.287468  25277.806183  11668.530849    444.847514
PC32 -21987.778400   5455.527149 -16276.287533   -895.061013
PC33 -15881.505135 -16234.220180  16214.401770   -961.156586
PC34   1318.719940 -25597.335787 -11073.447526   -739.521442
PC35  16834.607826  10112.209270 -19812.209987   -416.987620
PC36   5331.234986  16438.610737  21929.969929   -755.651364
PC37 -22627.754530  15106.815361  -6251.011252   -865.325808
PC38 -20564.281453  36152.974494  -7257.534481    130.210170
PC39  -1624.918882  34751.280960 -23727.566708     28.491541
PC40  -8758.804563  20983.640371  35512.937492    131.785889
PC41 -26782.517098  -7859.898352    113.904042   -930.009920
PC42   4490.871326 -15304.744666  22941.730251   -869.884682
PC43 -10598.666351 -25194.527716   5693.665509   -598.815579
PC44  13102.360958 -10957.817591 -22078.108409     39.786639
PC45  19674.584304    724.126608  19764.958318    362.763335
PC46 -11981.750514  22416.548080  11565.695834    404.402819
PE01 -23997.032271  -4615.280620 -16715.361571  -1046.582970
PE02  24043.906958   4543.980411  16634.669615    198.561625
PE03  24091.691733  15555.056063   7354.340776   -398.872051
PE04 -20421.812236   1525.759404 -21371.225196   -710.256520
PE05  13668.092385  23753.472786 -11185.507930   -304.394703
PE07   4627.472417 -18019.351632  23024.825022   -501.129437
PE08  20163.705964  -1822.997886  21595.866932   6046.663910
PE09  -4273.964629  18047.862483 -23070.470584   5764.714160
PE11  -9951.296579  27303.887021   5573.622711   6319.006797
PE12 -16951.967205  11667.635262  21276.002223   5355.084157
PE13  10055.449629 -27195.932169  -5965.248060    412.105857
PE14 -16586.084300 -17074.930753   6553.211761  -1330.665866
PE15  16832.540380 -11819.394471 -21276.532784    829.198285
PE18  23817.652503  11261.821168 -18152.481199  -1454.643446
PE19 -23555.377953 -17138.409156  -5269.272530    204.329292
PE21  -6486.436880 -15276.283828 -24514.774042   -648.583112
PE24 -16109.008437  17289.270013  17829.275055   -744.759750
PE25   6261.298683  15349.548295  24523.596249   -526.487409
PE26  -3056.047392 -26233.493020  13377.100434   2145.796629
PE27  15358.614521 -17453.827581 -18311.957235     29.430544
PE30  28259.545049  -8746.636472   -631.635207   3179.505376
PE31 -28051.436388   9365.320660   1388.273850   -478.312508
PE33 -13697.872348 -10508.522759  24057.433929   -465.718995
PE36   2605.905610  26551.336169 -12802.087114    440.346716
PG01 -14194.241454  21610.643490   4981.163918    760.777316
PG02  16158.169626  -2541.568954 -20273.651918   -577.064169
PG03 -16040.258155  12880.795868 -16820.626674    -83.566962
PG04  -7867.181844  14585.040149 -20739.265260   -180.357512
PG05  26434.122470  -3419.483774    516.155489    -33.754520
PG06  10014.510542  12097.659066 -21346.089039     -2.756635
PG07  -4553.696422  24354.160987   9193.100516     59.419664
PG08 -13024.978205   7633.733775  21865.707044    -10.408191
PG09   3137.507323  22069.796818 -14482.972539   -323.074651
PG10 -14055.010958 -12103.864351  19219.300045    -61.920124
PG11 -11270.058351  18162.936091  15541.351193    -24.063310
PG12  20175.826022  -9870.213392 -14299.533542     -1.394270
PG13  17181.255939   3627.859285  19828.906207     97.452838
PG14  11811.461245  13407.276499  19644.999382     96.963223
PG15  12535.255220  -9536.193166  21037.715567   -169.277685
PG16 -26787.401197   -977.056196  -1035.881069   -280.427080
PG17  13967.756395  22576.299575   -387.545624    394.524682
PG18   2991.987187 -23700.394339  11544.798009    347.365086
PG19  17021.247187  18414.757963  -9171.333638    -38.232883
PG20  -1276.403594 -15745.323656  21281.078184    524.684009
PG21 -16543.164119  15991.836378  13609.604439     95.746353
PG22 -22469.763090  10656.180568  -8882.671411   -678.871392
PG23  -1888.378374 -15035.640933  21790.567739    118.367921
PG24  15323.456733 -18907.795263   9912.139466      2.304971
PG25   5826.122541 -15258.628388 -21148.834020     80.897713
PG26 -23580.318450  -5406.053009 -11315.591874     45.189085
PG27 -18779.685800  -6048.932305  17798.456234    -76.704211
PG28  14141.362427  12988.850249  18829.965337    615.255941
PG29  -1554.042481 -22005.363972 -14803.024594   -295.329774
PG30   4821.623684  19171.244394  17681.532998   -385.041959
PG31 -12325.197276  -9420.910230 -21601.672828   -100.212739
PG32 -16219.164805 -21072.928678  -1702.551540     18.800431
PJ01 -26389.857773  16172.149149 -24023.565200   -341.269066
PJ02 -31439.333190  26912.538125  12886.964120      1.921902
PJ03 -25725.643951  25461.300247  26727.960171     -0.746721
PR01 -23300.395964 -10096.722293  -2346.941627     75.015326
PR02 -15698.763464   2439.643892 -19937.418744    467.090400
PR03    838.514817  12324.148062 -22267.810616     30.836033
PR04  16762.338934  14967.591045 -12035.815274     74.092307
PR05  23183.425385   9383.188056   4961.769872     66.531334
PR07  -1543.718116 -12628.246050  22152.680959    -42.453431
PR08 -16730.430375 -15053.256419  12080.965685    -57.421841
PR09  21371.296552 -13988.003910    287.717661    -21.655316
PR11  -5244.558784  -9572.365949 -23047.905772      3.335798
PR12 -19153.969905   3073.158900 -16558.225417    205.158202
PR13 -21431.480919  13815.641131   -826.926389    -50.752671
PR14 -11024.908968  16456.481958  16072.754533     61.012333
PR15   5532.481097   9524.450242  23021.202314    105.383661
PR16  19476.648913  -3972.828499  15875.205631    -11.360259
PR17  -2095.998340  24434.596716   7091.359116    400.235071
PR18   5372.397359  22868.714113  -9849.941925     66.701384
PR19   9639.639222  10201.462830 -21293.330430   -132.116486
PR20   9083.718224 -11558.152892 -20846.712680   -433.427746
PR21   1615.567012 -24741.238274  -5943.989947   -187.862247
PR22  -5676.127159 -22409.477826  10887.016457    -97.994551
PR24  -9196.656856  12349.419994  20361.320228     31.607348
EOF
